{
  "norad_id": 62206,
  "name": "STARLINK-32448",
  "history": [
    {
      "epoch": "2026-03-28T12:15:44.311392Z",
      "apogee_km": 483.4412651862749,
      "perigee_km": 482.54026188836724,
      "latitude_deg": -3.535943194833581e-05,
      "longitude_deg": 154.2325005943257,
      "height_km": 482.7924200493111,
      "semi_major_axis_km": 6861.127763537321,
      "eccentricity": 6.566e-05,
      "inclination_deg": 43.0018,
      "raan_deg": 164.0975,
      "arg_perigee_deg": 266.7666,
      "mean_anomaly_deg": 93.311,
      "mean_motion_rev_day": 15.27599481
    },
    {
      "epoch": "2026-03-29T05:31:27.920928Z",
      "apogee_km": 483.4596824439368,
      "perigee_km": 482.6390845524702,
      "latitude_deg": 2.976785801118567e-05,
      "longitude_deg": -109.46976625045097,
      "height_km": 482.6169613708177,
      "semi_major_axis_km": 6861.186383498203,
      "eccentricity": 5.98e-05,
      "inclination_deg": 43.0017,
      "raan_deg": 160.0358,
      "arg_perigee_deg": 300.5503,
      "mean_anomaly_deg": 59.529,
      "mean_motion_rev_day": 15.27579904
    },
    {
      "epoch": "2026-03-30T05:03:49.097952Z",
      "apogee_km": 483.2620855743835,
      "perigee_km": 482.7653382628405,
      "latitude_deg": -2.722769849649591e-06,
      "longitude_deg": -109.06425910637088,
      "height_km": 482.63575318809563,
      "semi_major_axis_km": 6861.150711918612,
      "eccentricity": 3.62e-05,
      "inclination_deg": 43.002,
      "raan_deg": 154.4963,
      "arg_perigee_deg": 308.2877,
      "mean_anomaly_deg": 51.7942,
      "mean_motion_rev_day": 15.27591817
    },
    {
      "epoch": "2026-03-30T05:03:49.098816Z",
      "apogee_km": 483.2618797398618,
      "perigee_km": 482.7655440973622,
      "latitude_deg": -4.575999933330776e-06,
      "longitude_deg": -109.06426469245113,
      "height_km": 482.6358807074168,
      "semi_major_axis_km": 6861.150711918612,
      "eccentricity": 3.617e-05,
      "inclination_deg": 43.002,
      "raan_deg": 154.4963,
      "arg_perigee_deg": 308.2877,
      "mean_anomaly_deg": 51.7942,
      "mean_motion_rev_day": 15.27591817
    },
    {
      "epoch": "2026-03-30T12:54:35.627904Z",
      "apogee_km": 483.82743349580414,
      "perigee_km": 482.1464581290802,
      "latitude_deg": -1.3122523436877912e-05,
      "longitude_deg": 131.0725210021518,
      "height_km": 482.59160772631367,
      "semi_major_axis_km": 6861.123945812442,
      "eccentricity": 0.0001225,
      "inclination_deg": 43.0015,
      "raan_deg": 152.6492,
      "arg_perigee_deg": 281.8129,
      "mean_anomaly_deg": 78.2585,
      "mean_motion_rev_day": 15.27600756
    },
    {
      "epoch": "2026-03-31T12:26:56.416992Z",
      "apogee_km": 483.88319501586193,
      "perigee_km": 482.12537061920375,
      "latitude_deg": -1.641716493751532e-05,
      "longitude_deg": 131.47858073334712,
      "height_km": 482.7155136051928,
      "semi_major_axis_km": 6861.141282817533,
      "eccentricity": 0.0001281,
      "inclination_deg": 43.0021,
      "raan_deg": 147.1086,
      "arg_perigee_deg": 274.2812,
      "mean_anomaly_deg": 85.7893,
      "mean_motion_rev_day": 15.27594966
    },
    {
      "epoch": "2026-04-01T19:50:06.492192Z",
      "apogee_km": 483.55196614558463,
      "perigee_km": 482.6298171169492,
      "latitude_deg": 2.9758646010816745e-05,
      "longitude_deg": 12.012769029729101,
      "height_km": 482.68874274160714,
      "semi_major_axis_km": 6861.227891631267,
      "eccentricity": 6.72e-05,
      "inclination_deg": 43.0015,
      "raan_deg": 139.7237,
      "arg_perigee_deg": 292.7568,
      "mean_anomaly_deg": 67.3213,
      "mean_motion_rev_day": 15.27566042
    },
    {
      "epoch": "2026-04-02T19:22:25.738176Z",
      "apogee_km": 483.31346315623523,
      "perigee_km": 482.45034697797746,
      "latitude_deg": 3.768633668903561e-05,
      "longitude_deg": 12.428387446447132,
      "height_km": 482.3949748938861,
      "semi_major_axis_km": 6861.018905067106,
      "eccentricity": 6.29e-05,
      "inclination_deg": 43.0018,
      "raan_deg": 134.1862,
      "arg_perigee_deg": 307.5572,
      "mean_anomaly_deg": 52.5223,
      "mean_motion_rev_day": 15.27635837
    }
  ]
}